[{"OBJECT_NAME":"STARLINK-31969","OBJECT_ID":"2024-100E","EPOCH":"2026-03-09T11:16:58.802592","MEAN_MOTION":15.27573262,"ECCENTRICITY":8.466e-5,"INCLINATION":43.0022,"RA_OF_ASC_NODE":123.1512,"ARG_OF_PERICENTER":208.8511,"MEAN_ANOMALY":151.2294,"EPHEMERIS_TYPE":0,"CLASSIFICATION_TYPE":"U","NORAD_CAT_ID":59889,"ELEMENT_SET_NO":999,"REV_AT_EPOCH":10116,"BSTAR":-4.4529052e-5,"MEAN_MOTION_DOT":-1.487e-5,"MEAN_MOTION_DDOT":0},{"OBJECT_NAME":"KUIPER-00274","OBJECT_ID":"2026-030AE","EPOCH":"2026-03-09T22:00:01.999584","MEAN_MOTION":15.29896925,"ECCENTRICITY":0.00182929,"INCLINATION":51.8831,"RA_OF_ASC_NODE":218.6923,"ARG_OF_PERICENTER":71.2033,"MEAN_ANOMALY":115.2248,"EPHEMERIS_TYPE":0,"CLASSIFICATION_TYPE":"U","NORAD_CAT_ID":67792,"ELEMENT_SET_NO":999,"REV_AT_EPOCH":410,"BSTAR":0.0017989756,"MEAN_MOTION_DOT":0.00053102,"MEAN_MOTION_DDOT":0}]
